KUIPER-00458            
1 68950U 26098AH  26159.15749494  .00021032  00000+0  60330-3 0  9991
2 68950  51.8752 110.9944 0003538 119.4479 240.6861 15.35827377  5965
STARLINK-37258          
1 68951U 26099A   26159.83336806 -.00003530  00000+0 -93421-4 0  9990
2 68951  53.1595 200.6701 0000434  69.2425 349.1942 15.34400029  6022
STARLINK-37308          
1 68952U 26099B   26159.83336806 -.02225917  00000+0 -63031-1 0  9999
2 68952  53.1591 200.6872 0000453 132.9138 285.9167 15.39166307  6027
STARLINK-37337          
1 68953U 26099C   26159.82950315 -.00164915  00000+0 -33806-2 0  9992
2 68953  53.1596 200.7824 0007523  56.6490 303.5237 15.46034246  5982
STARLINK-37301          
1 68954U 26099D   26159.83336806 -.02482561  00000+0 -67980-1 0  9998
2 68954  53.1596 200.6175 0000889  69.1206  23.4541 15.40573877  6027
STARLINK-36794          
1 68955U 26099E   26159.81952666  .00023422  00000+0  67988-3 0  9998
2 68955  53.1597 200.6955 0001465  80.4608 279.6561 15.35417881  5985
STARLINK-36760          
1 68956U 26099F   26159.81228752  .00019866  00000+0  59737-3 0  9991
2 68956  53.1594 200.6557 0000318  51.7870 308.3161 15.34408427  5980
STARLINK-37047          
1 68957U 26099G   26159.82630748 -.00669587  00000+0 -14111-1 0  9993
2 68957  53.1607 200.7586 0007553  59.2426 300.9325 15.47124190  5983
STARLINK-36242          
1 68958U 26099H   26159.83336806 -.00006648  00000+0 -18586-3 0  9998
2 68958  53.1590 200.5067 0000766  83.3208  56.5437 15.34390002  5972
STARLINK-37033          
1 68959U 26099J   26159.81975348  .00054875  00000+0  98704-3 0  9990
2 68959  53.1584 200.7158 0001147  83.2353 276.8786 15.49330648  5984
STARLINK-36978          
1 68960U 26099K   26159.82310955  .00057814  00000+0  10391-2 0  9991
2 68960  53.1594 200.7373 0001234  74.8528 285.2617 15.49330249  5987
STARLINK-36965          
1 68961U 26099L   26159.81550818  .00049978  00000+0  90032-3 0  9998
2 68961  53.1596 200.6869 0001415  76.2075 283.9092 15.49327786  5987
STARLINK-36765          
1 68962U 26099M   26159.41217835  .00019961  00000+0  58139-3 0  9995
2 68962  53.1598 202.4186 0001244  96.5031 263.6114 15.35411828  5929
STARLINK-36764          
1 68963U 26099N   26159.54150848  .00022664  00000+0  65834-3 0  9994
2 68963  53.1582 201.8017 0001155  72.3813 287.7316 15.35415668  5949
STARLINK-36731          
1 68964U 26099P   26159.40464262  .00016071  00000+0  48563-3 0  9993
2 68964  53.1604 202.3665 0000838  93.5335 266.5763 15.34408012  5924
STARLINK-36664          
1 68965U 26099Q   26159.59794367  .00027848  00000+0  83120-3 0  9998
2 68965  53.1579 201.4479 0001074  82.1576 277.9548 15.34440614  5957
STARLINK-36402          
1 68966U 26099R   26159.83336806 -.01676189  00000+0 -52609-1 0  9993
2 68966  53.1604 200.3255 0001623 102.2857 129.9392 15.35609335  5987
STARLINK-36671          
1 68967U 26099S   26159.82202072  .00012220  00000+0  38219-3 0  9990
2 68967  53.1600 199.9836 0001641  63.9964 296.1207 15.33556863  5992
STARLINK-36665          
1 68968U 26099T   26159.39884166  .00011970  00000+0  35344-3 0  9990
2 68968  53.1592 202.3326 0001442  86.4975 273.6193 15.35405606  5924
STARLINK-36303          
1 68969U 26099U   26159.82057161  .00022632  00000+0  69772-3 0  9995
2 68969  53.1605 199.9758 0001960  91.6311 268.4916 15.33532678  5997
STARLINK-37257          
1 68970U 26099V   26159.83336806 -.00009572  00000+0 -26383-3 0  9995
2 68970  53.1600 200.3157 0001085  74.3265 161.3259 15.35403306  6032
STARLINK-37367          
1 68971U 26099W   26157.84015999  .00051944  00000+0  93545-3 0  9994
2 68971  53.1581 209.6741 0002273  32.7409 327.3740 15.49318651  5682
STARLINK-37259          
1 68972U 26099X   26159.72796237 -.00703879  00000+0 -14286-1 0  9991
2 68972  53.1597 200.8431 0002821  88.8323 271.3008 15.47990764  5971
STARLINK-37387          
1 68973U 26099Y   26159.82475898  .00058988  00000+0  10598-2 0  9995
2 68973  53.1583 200.7472 0001235  82.1126 278.0023 15.49331378  5981
STARLINK-37362          
1 68974U 26099Z   26159.83336806 -.02496975  00000+0 -69091-1 0  9999
2 68974  53.1604 200.2422 0001555  89.8876 186.4161 15.40278648  5983
STARLINK-36667          
1 68975U 26099AA  26159.83336806 -.00007569  00000+0 -21307-3 0  9995
2 68975  53.1606 200.1333 0001762  78.9721 246.8969 15.34400792  6038
STARLINK-36735          
1 68976U 26099AB  26159.83336806 -.00006739  00000+0 -18866-3 0  9990
2 68976  53.1606 200.1090 0002040  81.2608 256.3653 15.34367604  6041
STARLINK-37371          
1 68977U 26099AC  26159.83534552  .00019755  00000+0  59425-3 0  9995
2 68977  53.1605 200.0708 0001545  70.9650 289.1520 15.34400782  5992
STARLINK-37293          
1 68978U 26099AD  26159.83336806 -.00006377  00000+0 -17778-3 0  9991
2 68978  53.1605 200.0608 0000567  86.2545 274.5187 15.34400544  5980
STARLINK-36248          
1 68979U 26099AE  26159.83215644 -.00447106  00000+0 -12096-1 0  9993
2 68979  53.1598 200.0635 0003238  67.4930 292.6417 15.38948861  5990
