OBJECT_NAME,OBJECT_ID,EPOCH,MEAN_MOTION,ECCENTRICITY,INCLINATION,RA_OF_ASC_NODE,ARG_OF_PERICENTER,MEAN_ANOMALY,EPHEMERIS_TYPE,CLASSIFICATION_TYPE,NORAD_CAT_ID,ELEMENT_SET_NO,REV_AT_EPOCH,BSTAR,MEAN_MOTION_DOT,MEAN_MOTION_DDOT
KUIPER-00458,2026-098AH,2026-06-08T03:46:47.562816,15.35827377,.00035386,51.8752,110.9944,119.4479,240.6861,0,U,68950,999,596,.60329552E-3,.21032E-3,0
STARLINK-37258,2026-099A,2026-06-08T20:00:03.000384,15.34400029,.0000434,53.1595,200.6701,69.2425,349.1942,0,U,68951,999,602,-.93421E-4,-.353E-4,0
STARLINK-37308,2026-099B,2026-06-08T20:00:03.000384,15.39166307,.0000453,53.1591,200.6872,132.9138,285.9167,0,U,68952,999,602,-.63031E-1,-.2225917E-1,0
STARLINK-37337,2026-099C,2026-06-08T19:54:29.072160,15.46034246,.0007523,53.1596,200.7824,56.6490,303.5237,0,U,68953,999,598,-.33806E-2,-.164915E-2,0
STARLINK-37301,2026-099D,2026-06-08T20:00:03.000384,15.40573877,.0000889,53.1596,200.6175,69.1206,23.4541,0,U,68954,999,602,-.6798E-1,-.2482561E-1,0
STARLINK-36794,2026-099E,2026-06-08T19:40:07.103424,15.35417881,.0001465,53.1597,200.6955,80.4608,279.6561,0,U,68955,999,598,.67988E-3,.23422E-3,0
STARLINK-36760,2026-099F,2026-06-08T19:29:41.641728,15.34408427,.0000318,53.1594,200.6557,51.7870,308.3161,0,U,68956,999,598,.59737E-3,.19866E-3,0
STARLINK-37047,2026-099G,2026-06-08T19:49:52.966272,15.47124190,.0007553,53.1607,200.7586,59.2426,300.9325,0,U,68957,999,598,-.14111E-1,-.669587E-2,0
STARLINK-36242,2026-099H,2026-06-08T20:00:03.000384,15.34390002,.0000766,53.1590,200.5067,83.3208,56.5437,0,U,68958,999,597,-.18586E-3,-.6648E-4,0
STARLINK-37033,2026-099J,2026-06-08T19:40:26.700672,15.49330648,.0001147,53.1584,200.7158,83.2353,276.8786,0,U,68959,999,598,.98704E-3,.54875E-3,0
STARLINK-36978,2026-099K,2026-06-08T19:45:16.665120,15.49330249,.0001234,53.1594,200.7373,74.8528,285.2617,0,U,68960,999,598,.10391E-2,.57814E-3,0
STARLINK-36965,2026-099L,2026-06-08T19:34:19.906752,15.49327786,.0001415,53.1596,200.6869,76.2075,283.9092,0,U,68961,999,598,.90032E-3,.49978E-3,0
STARLINK-36765,2026-099M,2026-06-08T09:53:32.209440,15.35411828,.00012441,53.1598,202.4186,96.5031,263.6114,0,U,68962,999,592,.58138986E-3,.19961E-3,0
STARLINK-36764,2026-099N,2026-06-08T12:59:46.332672,15.35415668,.00011559,53.1582,201.8017,72.3813,287.7316,0,U,68963,999,594,.65833657E-3,.22664E-3,0
STARLINK-36731,2026-099P,2026-06-08T09:42:41.122368,15.34408012,.00008382,53.1604,202.3665,93.5335,266.5763,0,U,68964,999,592,.48563246E-3,.16071E-3,0
STARLINK-36664,2026-099Q,2026-06-08T14:21:02.333088,15.34440614,.0001074,53.1579,201.4479,82.1576,277.9548,0,U,68965,999,595,.8312E-3,.27848E-3,0
STARLINK-36402,2026-099R,2026-06-08T20:00:03.000384,15.35609335,.0001623,53.1604,200.3255,102.2857,129.9392,0,U,68966,999,598,-.52609E-1,-.1676189E-1,0
STARLINK-36671,2026-099S,2026-06-08T19:43:42.590208,15.33556863,.0001641,53.1600,199.9836,63.9964,296.1207,0,U,68967,999,599,.38219E-3,.1222E-3,0
STARLINK-36665,2026-099T,2026-06-08T09:34:19.919424,15.35405606,.00014421,53.1592,202.3326,86.4975,273.6193,0,U,68968,999,592,.35343652E-3,.1197E-3,0
STARLINK-36303,2026-099U,2026-06-08T19:41:37.387104,15.33532678,.000196,53.1605,199.9758,91.6311,268.4916,0,U,68969,999,599,.69772E-3,.22632E-3,0
STARLINK-37257,2026-099V,2026-06-08T20:00:03.000384,15.35403306,.0001085,53.1600,200.3157,74.3265,161.3259,0,U,68970,999,603,-.26383E-3,-.9572E-4,0
STARLINK-37367,2026-099W,2026-06-06T20:09:49.823136,15.49318651,.0002273,53.1581,209.6741,32.7409,327.3740,0,U,68971,999,568,.93545E-3,.51944E-3,0
STARLINK-37259,2026-099X,2026-06-08T17:28:15.948768,15.47990764,.0002821,53.1597,200.8431,88.8323,271.3008,0,U,68972,999,597,-.14286E-1,-.703879E-2,0
STARLINK-37387,2026-099Y,2026-06-08T19:47:39.175872,15.49331378,.0001235,53.1583,200.7472,82.1126,278.0023,0,U,68973,999,598,.10598E-2,.58988E-3,0
STARLINK-37362,2026-099Z,2026-06-08T20:00:03.000384,15.40278648,.0001555,53.1604,200.2422,89.8876,186.4161,0,U,68974,999,598,-.69091E-1,-.2496975E-1,0
STARLINK-36667,2026-099AA,2026-06-08T20:00:03.000384,15.34400792,.0001762,53.1606,200.1333,78.9721,246.8969,0,U,68975,999,603,-.21307E-3,-.7569E-4,0
STARLINK-36735,2026-099AB,2026-06-08T20:00:03.000384,15.34367604,.000204,53.1606,200.1090,81.2608,256.3653,0,U,68976,999,604,-.18866E-3,-.6739E-4,0
STARLINK-37371,2026-099AC,2026-06-08T20:02:53.852928,15.34400782,.0001545,53.1605,200.0708,70.9650,289.1520,0,U,68977,999,599,.59425E-3,.19755E-3,0
STARLINK-37293,2026-099AD,2026-06-08T20:00:03.000384,15.34400544,.0000567,53.1605,200.0608,86.2545,274.5187,0,U,68978,999,598,-.17778E-3,-.6377E-4,0
STARLINK-36248,2026-099AE,2026-06-08T19:58:18.316416,15.38948861,.0003238,53.1598,200.0635,67.4930,292.6417,0,U,68979,999,599,-.12096E-1,-.447106E-2,0
